{
  "type": "FeatureCollection",
  "features": [
    {
      "type": "Feature",
      "properties": {
        "norad_id": 66516,
        "name": "STARLINK-35924",
        "group": "last-30-days",
        "lat": 38.42304761988243,
        "lon": -136.5394513565533,
        "alt_km": 344.9263177768107,
        "timestamp": "2025-12-04T15:47:52.869447+00:00",
        "meta_object_name": "STARLINK-35924",
        "meta_object_id": "2025-265A",
        "meta_epoch": "2025-12-04T08:00:01.999872",
        "meta_mean_motion": 15.74437224,
        "meta_eccentricity": 0.0001362,
        "meta_inclination": 42.9995,
        "meta_ra_of_asc_node": 103.7803,
        "meta_arg_of_pericenter": 276.3861,
        "meta_mean_anomaly": 154.906,
        "meta_ephemeris_type": 0,
        "meta_classification_type": "U",
        "meta_norad_cat_id": 66516,
        "meta_element_set_no": 999,
        "meta_rev_at_epoch": 362,
        "meta_bstar": -0.014201421,
        "meta_mean_motion_dot": -0.01854314,
        "meta_mean_motion_ddot": 0,
        "tle_line1": "1 66516U 25265A   25338.33335648 -.01854314  00000+0 -14201-1 0  9996",
        "tle_line2": "2 66516  42.9995 103.7803 0001362 276.3861 154.9060 15.74437224  3626"
      },
      "geometry": {
        "type": "Point",
        "coordinates": [
          -136.5394513565533,
          38.42304761988243
        ]
      }
    },
    {
      "type": "Feature",
      "properties": {
        "norad_id": 66517,
        "name": "STARLINK-35937",
        "group": "last-30-days",
        "lat": 37.72079427067398,
        "lon": -134.29685893327067,
        "alt_km": 344.8527285061864,
        "timestamp": "2025-12-04T15:47:52.869457+00:00",
        "meta_object_name": "STARLINK-35937",
        "meta_object_id": "2025-265B",
        "meta_epoch": "2025-12-04T08:00:01.999872",
        "meta_mean_motion": 15.74424489,
        "meta_eccentricity": 0.00012944,
        "meta_inclination": 42.9995,
        "meta_ra_of_asc_node": 103.7761,
        "meta_arg_of_pericenter": 266.6188,
        "meta_mean_anomaly": 166.5753,
        "meta_ephemeris_type": 0,
        "meta_classification_type": "U",
        "meta_norad_cat_id": 66517,
        "meta_element_set_no": 999,
        "meta_rev_at_epoch": 364,
        "meta_bstar": -0.013897673,
        "meta_mean_motion_dot": -0.01818793,
        "meta_mean_motion_ddot": 0,
        "tle_line1": "1 66517U 25265B   25338.33335648 -.01818793  00000+0 -13898-1 0  9999",
        "tle_line2": "2 66517  42.9995 103.7761 0001294 266.6188 166.5753 15.74424489  3647"
      },
      "geometry": {
        "type": "Point",
        "coordinates": [
          -134.29685893327067,
          37.72079427067398
        ]
      }
    },
    {
      "type": "Feature",
      "properties": {
        "norad_id": 66518,
        "name": "STARLINK-35962",
        "group": "last-30-days",
        "lat": 36.97138926724427,
        "lon": -132.0832777059646,
        "alt_km": 345.1647638186023,
        "timestamp": "2025-12-04T15:47:52.869467+00:00",
        "meta_object_name": "STARLINK-35962",
        "meta_object_id": "2025-265C",
        "meta_epoch": "2025-12-04T08:00:01.999872",
        "meta_mean_motion": 15.74415421,
        "meta_eccentricity": 0.00015686,
        "meta_inclination": 42.9995,
        "meta_ra_of_asc_node": 103.7711,
        "meta_arg_of_pericenter": 271.6569,
        "meta_mean_anomaly": 163.4541,
        "meta_ephemeris_type": 0,
        "meta_classification_type": "U",
        "meta_norad_cat_id": 66518,
        "meta_element_set_no": 999,
        "meta_rev_at_epoch": 364,
        "meta_bstar": -0.013761353,
        "meta_mean_motion_dot": -0.01802806,
        "meta_mean_motion_ddot": 0,
        "tle_line1": "1 66518U 25265C   25338.33335648 -.01802806  00000+0 -13761-1 0  9997",
        "tle_line2": "2 66518  42.9995 103.7711 0001568 271.6569 163.4541 15.74415421  3643"
      },
      "geometry": {
        "type": "Point",
        "coordinates": [
          -132.0832777059646,
          36.97138926724427
        ]
      }
    },
    {
      "type": "Feature",
      "properties": {
        "norad_id": 66519,
        "name": "STARLINK-35931",
        "group": "last-30-days",
        "lat": 36.179300410289564,
        "lon": -129.90803982470226,
        "alt_km": 345.18585166434514,
        "timestamp": "2025-12-04T15:47:52.869477+00:00",
        "meta_object_name": "STARLINK-35931",
        "meta_object_id": "2025-265D",
        "meta_epoch": "2025-12-04T08:00:01.999872",
        "meta_mean_motion": 15.74421881,
        "meta_eccentricity": 0.00014523,
        "meta_inclination": 42.9996,
        "meta_ra_of_asc_node": 103.766,
        "meta_arg_of_pericenter": 269.3901,
        "meta_mean_anomaly": 167.6391,
        "meta_ephemeris_type": 0,
        "meta_classification_type": "U",
        "meta_norad_cat_id": 66519,
        "meta_element_set_no": 999,
        "meta_rev_at_epoch": 364,
        "meta_bstar": -0.013860313,
        "meta_mean_motion_dot": -0.01814474,
        "meta_mean_motion_ddot": 0,
        "tle_line1": "1 66519U 25265D   25338.33335648 -.01814474  00000+0 -13860-1 0  9992",
        "tle_line2": "2 66519  42.9996 103.7660 0001452 269.3901 167.6391 15.74421881  3640"
      },
      "geometry": {
        "type": "Point",
        "coordinates": [
          -129.90803982470226,
          36.179300410289564
        ]
      }
    },
    {
      "type": "Feature",
      "properties": {
        "norad_id": 66520,
        "name": "STARLINK-35952",
        "group": "last-30-days",
        "lat": 35.3533270662009,
        "lon": -127.79029339000117,
        "alt_km": 345.3446956186044,
        "timestamp": "2025-12-04T15:47:52.869489+00:00",
        "meta_object_name": "STARLINK-35952",
        "meta_object_id": "2025-265E",
        "meta_epoch": "2025-12-04T08:00:01.999872",
        "meta_mean_motion": 15.74416567,
        "meta_eccentricity": 0.00014354,
        "meta_inclination": 42.9994,
        "meta_ra_of_asc_node": 103.7609,
        "meta_arg_of_pericenter": 281.2308,
        "meta_mean_anomaly": 157.6944,
        "meta_ephemeris_type": 0,
        "meta_classification_type": "U",
        "meta_norad_cat_id": 66520,
        "meta_element_set_no": 999,
        "meta_rev_at_epoch": 364,
        "meta_bstar": -0.013600961,
        "meta_mean_motion_dot": -0.01784388,
        "meta_mean_motion_ddot": 0,
        "tle_line1": "1 66520U 25265E   25338.33335648 -.01784388  00000+0 -13601-1 0  9997",
        "tle_line2": "2 66520  42.9994 103.7609 0001435 281.2308 157.6944 15.74416567  3646"
      },
      "geometry": {
        "type": "Point",
        "coordinates": [
          -127.79029339000117,
          35.3533270662009
        ]
      }
    },
    {
      "type": "Feature",
      "properties": {
        "norad_id": 66521,
        "name": "STARLINK-35915",
        "group": "last-30-days",
        "lat": 34.489311325838344,
        "lon": -125.71170631330321,
        "alt_km": 344.89217056479265,
        "timestamp": "2025-12-04T15:47:52.869503+00:00",
        "meta_object_name": "STARLINK-35915",
        "meta_object_id": "2025-265F",
        "meta_epoch": "2025-12-04T08:00:01.999872",
        "meta_mean_motion": 15.74401307,
        "meta_eccentricity": 8.631e-05,
        "meta_inclination": 42.9994,
        "meta_ra_of_asc_node": 103.7561,
        "meta_arg_of_pericenter": 250.9007,
        "meta_mean_anomaly": 189.9494,
        "meta_ephemeris_type": 0,
        "meta_classification_type": "U",
        "meta_norad_cat_id": 66521,
        "meta_element_set_no": 999,
        "meta_rev_at_epoch": 364,
        "meta_bstar": -0.013452848,
        "meta_mean_motion_dot": -0.01765885,
        "meta_mean_motion_ddot": 0,
        "tle_line1": "1 66521U 25265F   25338.33335648 -.01765885  00000+0 -13453-1 0  9994",
        "tle_line2": "2 66521  42.9994 103.7561 0000863 250.9007 189.9494 15.74401307  3641"
      },
      "geometry": {
        "type": "Point",
        "coordinates": [
          -125.71170631330321,
          34.489311325838344
        ]
      }
    },
    {
      "type": "Feature",
      "properties": {
        "norad_id": 66522,
        "name": "STARLINK-35946",
        "group": "last-30-days",
        "lat": 33.58240377707397,
        "lon": -123.65816850922579,
        "alt_km": 345.5548571288182,
        "timestamp": "2025-12-04T15:47:52.869513+00:00",
        "meta_object_name": "STARLINK-35946",
        "meta_object_id": "2025-265G",
        "meta_epoch": "2025-12-04T08:00:01.999872",
        "meta_mean_motion": 15.74421415,
        "meta_eccentricity": 0.0001446,
        "meta_inclination": 42.9995,
        "meta_ra_of_asc_node": 103.7514,
        "meta_arg_of_pericenter": 270.9947,
        "meta_mean_anomaly": 171.7843,
        "meta_ephemeris_type": 0,
        "meta_classification_type": "U",
        "meta_norad_cat_id": 66522,
        "meta_element_set_no": 999,
        "meta_rev_at_epoch": 364,
        "meta_bstar": -0.013841971,
        "meta_mean_motion_dot": -0.01812341,
        "meta_mean_motion_ddot": 0,
        "tle_line1": "1 66522U 25265G   25338.33335648 -.01812341  00000+0 -13842-1 0  9997",
        "tle_line2": "2 66522  42.9995 103.7514 0001446 270.9947 171.7843 15.74421415  3643"
      },
      "geometry": {
        "type": "Point",
        "coordinates": [
          -123.65816850922579,
          33.58240377707397
        ]
      }
    }
  ]
}